STARLINK-31560          
1 59361U 24060P   26068.57596352 -.00000506  00000+0 -88704-5 0  9994
2 59361  43.0032 260.6500 0001084 262.1715  97.9014 15.27564558110048
AL MUNTHER              
1 63240U 25052AG  26068.64540749  .00017933  00000+0  65015-3 0  9992
2 63240  97.4001 323.9152 0008027 130.7043 229.4895 15.28381521 54798
